{"type": "FeatureCollection", "features": [ {"type": "Feature", "properties": {"norad_id": 35650, "name": "COSMOS 2251 DEB", "group": "cosmos-2251-debris", "lat": 25.569941765612384, "lon": 31.692162778166193, "alt_km": 609.9893661959004, "timestamp": "2025-12-10T05:46:14.223083+00:00", "meta": {"OBJECT_NAME": "COSMOS 2251 DEB", "OBJECT_ID": "1993-036ANR", "EPOCH": "2025-12-09T14:09:40.216320", "MEAN_MOTION": 14.83490729, "ECCENTRICITY": 0.0014537, "INCLINATION": 74.0458, "RA_OF_ASC_NODE": 25.1117, "ARG_OF_PERICENTER": 73.9446, "MEAN_ANOMALY": 80.9093, "EPHEMERIS_TYPE": 0, "CLASSIFICATION_TYPE": "U", "NORAD_CAT_ID": 35650, "ELEMENT_SET_NO": 999, "REV_AT_EPOCH": 87587, "BSTAR": 0.0024035, "MEAN_MOTION_DOT": 0.00019829, "MEAN_MOTION_DDOT": 0}, "tle": {"line1": "1 35650U 93036ANR 25343.59004880  .00019829  00000+0  24035-2 0  9995", "line2": "2 35650  74.0458  25.1117 0014537  73.9446  80.9093 14.83490729875870"}}, "geometry": {"type": "Point", "coordinates": [31.692162778166193, 25.569941765612384]}}, {"type": "Feature", "properties": {"norad_id": 35660, "name": "COSMOS 2251 DEB", "group": "cosmos-2251-debris", "lat": -73.63001620979702, "lon": 34.89692489058179, "alt_km": 720.6458507505131, "timestamp": "2025-12-10T05:46:14.223093+00:00", "meta": {"OBJECT_NAME": "COSMOS 2251 DEB", "OBJECT_ID": "1993-036APB", "EPOCH": "2025-12-07T17:00:01.687104", "MEAN_MOTION": 14.49901725, "ECCENTRICITY": 0.001834, "INCLINATION": 74.0394, "RA_OF_ASC_NODE": 142.6736, "ARG_OF_PERICENTER": 291.9525, "MEAN_ANOMALY": 83.1689, "EPHEMERIS_TYPE": 0, "CLASSIFICATION_TYPE": "U", "NORAD_CAT_ID": 35660, "ELEMENT_SET_NO": 999, "REV_AT_EPOCH": 65798, "BSTAR": 0.00083521949, "MEAN_MOTION_DOT": 3.208e-05, "MEAN_MOTION_DDOT": 0}, "tle": {"line1": "1 35660U 93036APB 25341.70835286  .00003208  00000+0  83522-3 0  9990", "line2": "2 35660  74.0394 142.6736 0018340 291.9525  83.1689 14.49901725657989"}}, "geometry": {"type": "Point", "coordinates": [34.89692489058179, -73.63001620979702]}}, {"type": "Feature", "properties": {"norad_id": 35661, "name": "COSMOS 2251 DEB", "group": "cosmos-2251-debris", "lat": -60.432258382456986, "lon": 54.35912052473372, "alt_km": 631.8772408239711, "timestamp": "2025-12-10T05:46:14.223103+00:00", "meta": {"OBJECT_NAME": "COSMOS 2251 DEB", "OBJECT_ID": "1993-036APC", "EPOCH": "2025-12-09T17:08:36.134304", "MEAN_MOTION": 14.86479367, "ECCENTRICITY": 0.0088327, "INCLINATION": 74.0134, "RA_OF_ASC_NODE": 85.7599, "ARG_OF_PERICENTER": 190.7537, "MEAN_ANOMALY": 169.1759, "EPHEMERIS_TYPE": 0, "CLASSIFICATION_TYPE": "U", "NORAD_CAT_ID": 35661, "ELEMENT_SET_NO": 999, "REV_AT_EPOCH": 87823, "BSTAR": 0.0014984, "MEAN_MOTION_DOT": 0.00014219, "MEAN_MOTION_DDOT": 0}, "tle": {"line1": "1 35661U 93036APC 25343.71430711  .00014219  00000+0  14984-2 0  9997", "line2": "2 35661  74.0134  85.7599 0088327 190.7537 169.1759 14.86479367878236"}}, "geometry": {"type": "Point", "coordinates": [54.35912052473372, -60.432258382456986]}}, {"type": "Feature", "properties": {"norad_id": 35663, "name": "COSMOS 2251 DEB", "group": "cosmos-2251-debris", "lat": 5.9455427967504235, "lon": 131.1997708710587, "alt_km": 682.4586187825498, "timestamp": "2025-12-10T05:46:14.223112+00:00", "meta": {"OBJECT_NAME": "COSMOS 2251 DEB", "OBJECT_ID": "1993-036APE", "EPOCH": "2025-11-30T11:26:45.384288", "MEAN_MOTION": 14.65332391, "ECCENTRICITY": 0.00074535, "INCLINATION": 74.0171, "RA_OF_ASC_NODE": 148.2949, "ARG_OF_PERICENTER": 219.2944, "MEAN_ANOMALY": 140.7685, "EPHEMERIS_TYPE": 0, "CLASSIFICATION_TYPE": "U", "NORAD_CAT_ID": 35663, "ELEMENT_SET_NO": 999, "REV_AT_EPOCH": 73202, "BSTAR": 0.0015821861, "MEAN_MOTION_DOT": 8.525e-05, "MEAN_MOTION_DDOT": 0}, "tle": {"line1": "1 35663U 93036APE 25334.47691417  .00008525  00000+0  15822-2 0  9999", "line2": "2 35663  74.0171 148.2949 0007453 219.2944 140.7685 14.65332391732024"}}, "geometry": {"type": "Point", "coordinates": [131.1997708710587, 5.9455427967504235]}}, {"type": "Feature", "properties": {"norad_id": 35667, "name": "COSMOS 2251 DEB", "group": "cosmos-2251-debris", "lat": 67.13839286883174, "lon": -77.82250246567712, "alt_km": 688.6120123636683, "timestamp": "2025-12-10T05:46:14.223122+00:00", "meta": {"OBJECT_NAME": "COSMOS 2251 DEB", "OBJECT_ID": "1993-036APJ", "EPOCH": "2025-12-09T17:46:15.756096", "MEAN_MOTION": 14.59967906, "ECCENTRICITY": 0.0019976, "INCLINATION": 74.0551, "RA_OF_ASC_NODE": 145.8232, "ARG_OF_PERICENTER": 206.9301, "MEAN_ANOMALY": 153.083, "EPHEMERIS_TYPE": 0, "CLASSIFICATION_TYPE": "U", "NORAD_CAT_ID": 35667, "ELEMENT_SET_NO": 999, "REV_AT_EPOCH": 70759, "BSTAR": 0.001739, "MEAN_MOTION_DOT": 8.344e-05, "MEAN_MOTION_DDOT": 0}, "tle": {"line1": "1 35667U 93036APJ 25343.74046014  .00008344  00000+0  17390-2 0  9991", "line2": "2 35667  74.0551 145.8232 0019976 206.9301 153.0830 14.59967906707593"}}, "geometry": {"type": "Point", "coordinates": [-77.82250246567712, 67.13839286883174]}}, {"type": "Feature", "properties": {"norad_id": 35668, "name": "COSMOS 2251 DEB", "group": "cosmos-2251-debris", "lat": -4.412195492824274, "lon": 46.58432921181304, "alt_km": 732.3977599385908, "timestamp": "2025-12-10T05:46:14.223132+00:00", "meta": {"OBJECT_NAME": "COSMOS 2251 DEB", "OBJECT_ID": "1993-036APK", "EPOCH": "2025-12-08T23:24:19.681920", "MEAN_MOTION": 14.63969624, "ECCENTRICITY": 0.0083209, "INCLINATION": 74.045, "RA_OF_ASC_NODE": 227.747, "ARG_OF_PERICENTER": 333.7129, "MEAN_ANOMALY": 25.9825, "EPHEMERIS_TYPE": 0, "CLASSIFICATION_TYPE": "U", "NORAD_CAT_ID": 35668, "ELEMENT_SET_NO": 999, "REV_AT_EPOCH": 87592, "BSTAR": 0.00035808, "MEAN_MOTION_DOT": 1.939e-05, "MEAN_MOTION_DDOT": 0}, "tle": {"line1": "1 35668U 93036APK 25342.97522780  .00001939  00000+0  35808-3 0  9993", "line2": "2 35668  74.0450 227.7470 0083209 333.7129  25.9825 14.63969624875921"}}, "geometry": {"type": "Point", "coordinates": [46.58432921181304, -4.412195492824274]}}, {"type": "Feature", "properties": {"norad_id": 35669, "name": "COSMOS 2251 DEB", "group": "cosmos-2251-debris", "lat": 44.80396546724934, "lon": -179.85392784767674, "alt_km": 1225.305042482215, "timestamp": "2025-12-10T05:46:14.223142+00:00", "meta": {"OBJECT_NAME": "COSMOS 2251 DEB", "OBJECT_ID": "1993-036APL", "EPOCH": "2025-12-03T21:23:42.149184", "MEAN_MOTION": 13.57134195, "ECCENTRICITY": 0.0387239, "INCLINATION": 73.852, "RA_OF_ASC_NODE": 173.7821, "ARG_OF_PERICENTER": 287.3475, "MEAN_ANOMALY": 68.5633, "EPHEMERIS_TYPE": 0, "CLASSIFICATION_TYPE": "U", "NORAD_CAT_ID": 35669, "ELEMENT_SET_NO": 999, "REV_AT_EPOCH": 60669, "BSTAR": 0.0017031, "MEAN_MOTION_DOT": 1.95e-05, "MEAN_MOTION_DDOT": 0}, "tle": {"line1": "1 35669U 93036APL 25337.89146006  .00001950  00000+0  17031-2 0  9992", "line2": "2 35669  73.8520 173.7821 0387239 287.3475  68.5633 13.57134195606690"}}, "geometry": {"type": "Point", "coordinates": [-179.85392784767674, 44.80396546724934]}}, {"type": "Feature", "properties": {"norad_id": 35670, "name": "COSMOS 2251 DEB", "group": "cosmos-2251-debris", "lat": -22.916974359313215, "lon": -103.41931025448076, "alt_km": 617.0131342059303, "timestamp": "2025-12-10T05:46:14.223152+00:00", "meta": {"OBJECT_NAME": "COSMOS 2251 DEB", "OBJECT_ID": "1993-036APM", "EPOCH": "2025-12-08T12:40:44.894496", "MEAN_MOTION": 14.93746131, "ECCENTRICITY": 0.00374415, "INCLINATION": 73.8955, "RA_OF_ASC_NODE": 73.039, "ARG_OF_PERICENTER": 35.0218, "MEAN_ANOMALY": 325.3416, "EPHEMERIS_TYPE": 0, "CLASSIFICATION_TYPE": "U", "NORAD_CAT_ID": 35670, "ELEMENT_SET_NO": 999, "REV_AT_EPOCH": 87664, "BSTAR": 0.0018203888, "MEAN_MOTION_DOT": 0.00019569, "MEAN_MOTION_DDOT": 0}, "tle": {"line1": "1 35670U 93036APM 25342.52829739  .00019569  00000+0  18204-2 0  9999", "line2": "2 35670  73.8955  73.0390 0037441  35.0218 325.3416 14.93746131876644"}}, "geometry": {"type": "Point", "coordinates": [-103.41931025448076, -22.916974359313215]}}, {"type": "Feature", "properties": {"norad_id": 35671, "name": "COSMOS 2251 DEB", "group": "cosmos-2251-debris", "lat": -26.668127561889023, "lon": 75.72508216555293, "alt_km": 728.1124156751366, "timestamp": "2025-12-10T05:46:14.223163+00:00", "meta": {"OBJECT_NAME": "COSMOS 2251 DEB", "OBJECT_ID": "1993-036APN", "EPOCH": "2025-12-09T13:24:21.306816", "MEAN_MOTION": 14.48340433, "ECCENTRICITY": 0.004149, "INCLINATION": 74.0178, "RA_OF_ASC_NODE": 85.2791, "ARG_OF_PERICENTER": 259.861, "MEAN_ANOMALY": 118.1508, "EPHEMERIS_TYPE": 0, "CLASSIFICATION_TYPE": "U", "NORAD_CAT_ID": 35671, "ELEMENT_SET_NO": 999, "REV_AT_EPOCH": 86717, "BSTAR": 0.00041701, "MEAN_MOTION_DOT": 1.548e-05, "MEAN_MOTION_DDOT": 0}, "tle": {"line1": "1 35671U 93036APN 25343.55857994  .00001548  00000+0  41701-3 0  9995", "line2": "2 35671  74.0178  85.2791 0041490 259.8610 118.1508 14.48340433867179"}}, "geometry": {"type": "Point", "coordinates": [75.72508216555293, -26.668127561889023]}}, {"type": "Feature", "properties": {"norad_id": 35674, "name": "COSMOS 2251 DEB", "group": "cosmos-2251-debris", "lat": 23.11489581589836, "lon": 134.22334763607876, "alt_km": 769.720995134051, "timestamp": "2025-12-10T05:46:14.223173+00:00", "meta": {"OBJECT_NAME": "COSMOS 2251 DEB", "OBJECT_ID": "1993-036APR", "EPOCH": "2025-12-08T16:44:04.242048", "MEAN_MOTION": 14.54099843, "ECCENTRICITY": 0.00960707, "INCLINATION": 74.0606, "RA_OF_ASC_NODE": 324.1421, "ARG_OF_PERICENTER": 9.8802, "MEAN_ANOMALY": 350.4219, "EPHEMERIS_TYPE": 0, "CLASSIFICATION_TYPE": "U", "NORAD_CAT_ID": 35674, "ELEMENT_SET_NO": 999, "REV_AT_EPOCH": 86052, "BSTAR": 0.0029300128, "MEAN_MOTION_DOT": 0.00013157, "MEAN_MOTION_DDOT": 0}, "tle": {"line1": "1 35674U 93036APR 25342.69727132  .00013157  00000+0  29300-2 0  9991", "line2": "2 35674  74.0606 324.1421 0096070   9.8802 350.4219 14.54099843860528"}}, "geometry": {"type": "Point", "coordinates": [134.22334763607876, 23.11489581589836]}}]}